{
  "type": "FeatureCollection",
  "features": [
    {
      "type": "Feature",
      "properties": {
        "norad_id": 34540,
        "name": "IRIDIUM 33 DEB",
        "group": "iridium-33-debris",
        "lat": 6.441049636609802,
        "lon": 131.92766971815593,
        "alt_km": 638.1489648006473,
        "timestamp": "2025-12-02T08:59:33.099461+00:00",
        "meta_object_name": "IRIDIUM 33 DEB",
        "meta_object_id": "1997-051JH",
        "meta_epoch": "2025-12-01T22:40:55.821792",
        "meta_mean_motion": 14.74944145,
        "meta_eccentricity": 0.001463,
        "meta_inclination": 86.3093,
        "meta_ra_of_asc_node": 312.5415,
        "meta_arg_of_pericenter": 199.1417,
        "meta_mean_anomaly": 214.7599,
        "meta_ephemeris_type": 0,
        "meta_classification_type": "U",
        "meta_norad_cat_id": 34540,
        "meta_element_set_no": 999,
        "meta_rev_at_epoch": 88862,
        "meta_bstar": 0.0018615,
        "meta_mean_motion_dot": 0.00012557,
        "meta_mean_motion_ddot": 0,
        "tle_line1": "1 34540U 97051JH  25335.94509053  .00012557  00000+0  18615-2 0  9993",
        "tle_line2": "2 34540  86.3093 312.5415 0014630 199.1417 214.7599 14.74944145888626"
      },
      "geometry": {
        "type": "Point",
        "coordinates": [
          131.92766971815593,
          6.441049636609802
        ]
      }
    },
    {
      "type": "Feature",
      "properties": {
        "norad_id": 34648,
        "name": "IRIDIUM 33 DEB",
        "group": "iridium-33-debris",
        "lat": -0.7538859548618604,
        "lon": 106.17636429870511,
        "alt_km": 975.8850401013879,
        "timestamp": "2025-12-02T08:59:33.099474+00:00",
        "meta_object_name": "IRIDIUM 33 DEB",
        "meta_object_id": "1997-051JZ",
        "meta_epoch": "2025-12-01T03:11:38.418720",
        "meta_mean_motion": 14.1087899,
        "meta_eccentricity": 0.01868529,
        "meta_inclination": 86.3903,
        "meta_ra_of_asc_node": 286.6295,
        "meta_arg_of_pericenter": 334.6513,
        "meta_mean_anomaly": 24.5588,
        "meta_ephemeris_type": 0,
        "meta_classification_type": "U",
        "meta_norad_cat_id": 34648,
        "meta_element_set_no": 999,
        "meta_rev_at_epoch": 84797,
        "meta_bstar": 0.0079356223,
        "meta_mean_motion_dot": 0.00016788,
        "meta_mean_motion_ddot": 0,
        "tle_line1": "1 34648U 97051JZ  25335.13308355  .00016788  00000+0  79356-2 0  9994",
        "tle_line2": "2 34648  86.3903 286.6295 0186852 334.6513  24.5588 14.10878990847973"
      },
      "geometry": {
        "type": "Point",
        "coordinates": [
          106.17636429870511,
          -0.7538859548618604
        ]
      }
    },
    {
      "type": "Feature",
      "properties": {
        "norad_id": 34651,
        "name": "IRIDIUM 33 DEB",
        "group": "iridium-33-debris",
        "lat": 60.6572577521151,
        "lon": 151.6248806678485,
        "alt_km": 902.5871090755109,
        "timestamp": "2025-12-02T08:59:33.099502+00:00",
        "meta_object_name": "IRIDIUM 33 DEB",
        "meta_object_id": "1997-051KC",
        "meta_epoch": "2025-12-01T22:35:35.153376",
        "meta_mean_motion": 14.25524866,
        "meta_eccentricity": 0.0141864,
        "meta_inclination": 86.2826,
        "meta_ra_of_asc_node": 145.168,
        "meta_arg_of_pericenter": 238.3822,
        "meta_mean_anomaly": 120.3461,
        "meta_ephemeris_type": 0,
        "meta_classification_type": "U",
        "meta_norad_cat_id": 34651,
        "meta_element_set_no": 999,
        "meta_rev_at_epoch": 85742,
        "meta_bstar": 0.0033875,
        "meta_mean_motion_dot": 8.919e-05,
        "meta_mean_motion_ddot": 0,
        "tle_line1": "1 34651U 97051KC  25335.94137909  .00008919  00000+0  33875-2 0  9995",
        "tle_line2": "2 34651  86.2826 145.1680 0141864 238.3822 120.3461 14.25524866857426"
      },
      "geometry": {
        "type": "Point",
        "coordinates": [
          151.6248806678485,
          60.6572577521151
        ]
      }
    },
    {
      "type": "Feature",
      "properties": {
        "norad_id": 34652,
        "name": "IRIDIUM 33 DEB",
        "group": "iridium-33-debris",
        "lat": -19.4468720312948,
        "lon": 165.91513983047602,
        "alt_km": 706.054444919735,
        "timestamp": "2025-12-02T08:59:33.099514+00:00",
        "meta_object_name": "IRIDIUM 33 DEB",
        "meta_object_id": "1997-051KD",
        "meta_epoch": "2025-12-02T00:00:47.418048",
        "meta_mean_motion": 14.61892089,
        "meta_eccentricity": 0.0027108,
        "meta_inclination": 86.3315,
        "meta_ra_of_asc_node": 344.7836,
        "meta_arg_of_pericenter": 336.6738,
        "meta_mean_anomaly": 55.158,
        "meta_ephemeris_type": 0,
        "meta_classification_type": "U",
        "meta_norad_cat_id": 34652,
        "meta_element_set_no": 999,
        "meta_rev_at_epoch": 88327,
        "meta_bstar": 0.0011175,
        "meta_mean_motion_dot": 5.639e-05,
        "meta_mean_motion_ddot": 0,
        "tle_line1": "1 34652U 97051KD  25336.00054882  .00005639  00000+0  11175-2 0  9997",
        "tle_line2": "2 34652  86.3315 344.7836 0027108 336.6738  55.1580 14.61892089883277"
      },
      "geometry": {
        "type": "Point",
        "coordinates": [
          165.91513983047602,
          -19.4468720312948
        ]
      }
    },
    {
      "type": "Feature",
      "properties": {
        "norad_id": 34690,
        "name": "IRIDIUM 33 DEB",
        "group": "iridium-33-debris",
        "lat": -40.04109620017986,
        "lon": 38.44573933159762,
        "alt_km": 717.2138484329716,
        "timestamp": "2025-12-02T08:59:33.099525+00:00",
        "meta_object_name": "IRIDIUM 33 DEB",
        "meta_object_id": "1997-051KM",
        "meta_epoch": "2025-11-30T04:29:28.709376",
        "meta_mean_motion": 14.55018885,
        "meta_eccentricity": 0.00120076,
        "meta_inclination": 86.3793,
        "meta_ra_of_asc_node": 42.4459,
        "meta_arg_of_pericenter": 66.3956,
        "meta_mean_anomaly": 322.5053,
        "meta_ephemeris_type": 0,
        "meta_classification_type": "U",
        "meta_norad_cat_id": 34690,
        "meta_element_set_no": 999,
        "meta_rev_at_epoch": 87912,
        "meta_bstar": 0.00049664139,
        "meta_mean_motion_dot": 2.161e-05,
        "meta_mean_motion_ddot": 0,
        "tle_line1": "1 34690U 97051KM  25334.18713784  .00002161  00000+0  49664-3 0  9991",
        "tle_line2": "2 34690  86.3793  42.4459 0012007  66.3956 322.5053 14.55018885879125"
      },
      "geometry": {
        "type": "Point",
        "coordinates": [
          38.44573933159762,
          -40.04109620017986
        ]
      }
    },
    {
      "type": "Feature",
      "properties": {
        "norad_id": 34693,
        "name": "IRIDIUM 33 DEB",
        "group": "iridium-33-debris",
        "lat": -61.08058191539343,
        "lon": 135.6762673557063,
        "alt_km": 511.2579260203047,
        "timestamp": "2025-12-02T08:59:33.099538+00:00",
        "meta_object_name": "IRIDIUM 33 DEB",
        "meta_object_id": "1997-051KQ",
        "meta_epoch": "2025-11-30T23:07:01.388928",
        "meta_mean_motion": 15.23975533,
        "meta_eccentricity": 0.00160601,
        "meta_inclination": 86.3054,
        "meta_ra_of_asc_node": 309.6565,
        "meta_arg_of_pericenter": 71.8143,
        "meta_mean_anomaly": 350.1616,
        "meta_ephemeris_type": 0,
        "meta_classification_type": "U",
        "meta_norad_cat_id": 34693,
        "meta_element_set_no": 999,
        "meta_rev_at_epoch": 88735,
        "meta_bstar": 0.0041949238,
        "meta_mean_motion_dot": 0.0010311,
        "meta_mean_motion_ddot": 0,
        "tle_line1": "1 34693U 97051KQ  25334.96321052  .00103110  00000+0  41949-2 0  9996",
        "tle_line2": "2 34693  86.3054 309.6565 0016060  71.8143 350.1616 15.23975533887350"
      },
      "geometry": {
        "type": "Point",
        "coordinates": [
          135.6762673557063,
          -61.08058191539343
        ]
      }
    },
    {
      "type": "Feature",
      "properties": {
        "norad_id": 34696,
        "name": "IRIDIUM 33 DEB",
        "group": "iridium-33-debris",
        "lat": 78.77269864548704,
        "lon": -167.2973517393302,
        "alt_km": 683.2332531634293,
        "timestamp": "2025-12-02T08:59:33.099549+00:00",
        "meta_object_name": "IRIDIUM 33 DEB",
        "meta_object_id": "1997-051KT",
        "meta_epoch": "2025-12-01T15:05:30.511104",
        "meta_mean_motion": 14.64076144,
        "meta_eccentricity": 0.0075021,
        "meta_inclination": 86.1859,
        "meta_ra_of_asc_node": 32.6869,
        "meta_arg_of_pericenter": 205.0419,
        "meta_mean_anomaly": 287.6306,
        "meta_ephemeris_type": 0,
        "meta_classification_type": "U",
        "meta_norad_cat_id": 34696,
        "meta_element_set_no": 999,
        "meta_rev_at_epoch": 86510,
        "meta_bstar": 0.0055989172,
        "meta_mean_motion_dot": 0.00030736,
        "meta_mean_motion_ddot": 0,
        "tle_line1": "1 34696U 97051KT  25335.62882536  .00030736  00000+0  55989-2 0  9994",
        "tle_line2": "2 34696  86.1859  32.6869 0075021 205.0419 287.6306 14.64076144865106"
      },
      "geometry": {
        "type": "Point",
        "coordinates": [
          -167.2973517393302,
          78.77269864548704
        ]
      }
    }
  ]
}